#cV2024  5 21 18 38  0.00000000   14308 ORBIT ITRF  FIT CNES
## 2315 239880.00000000    60.00000000 60451 0.7763888888889
+    1   L39  0  0  0  0  0  0  0  0  0  0  0  0  0  0  0  0
+          0  0  0  0  0  0  0  0  0  0  0  0  0  0  0  0  0
+          0  0  0  0  0  0  0  0  0  0  0  0  0  0  0  0  0
+          0  0  0  0  0  0  0  0  0  0  0  0  0  0  0  0  0
+          0  0  0  0  0  0  0  0  0  0  0  0  0  0  0  0  0
++
++
++         0  0  0  0  0  0  0  0  0  0  0  0  0  0  0  0  0
++         0  0  0  0  0  0  0  0  0  0  0  0  0  0  0  0  0
++         0  0  0  0  0  0  0  0  0  0  0  0  0  0  0  0  0
%c L  cc TAI ccc cccc cccc cccc cccc ccccc ccccc ccccc ccccc
%c cc cc ccc ccc cccc cccc cccc cccc ccccc ccccc ccccc ccccc
%f  1.2500000  1.025000000  0.00000000000  0.000000000000000
%f  0.0000000  0.000000000  0.00000000000  0.000000000000000
%i    0    0    0    0      0      0      0      0         0
%i    0    0    0    0      0      0      0      0         0
/* CCCCCCCCCCCCCCCCCCCCCCCCCCCCCCCCCCCCCCCCCCCCCCCCCCCCCCCCC
/* CCCCCCCCCCCCCCCCCCCCCCCCCCCCCCCCCCCCCCCCCCCCCCCCCCCCCCCCC
/* CCCCCCCCCCCCCCCCCCCCCCCCCCCCCCCCCCCCCCCCCCCCCCCCCCCCCCCCC
/* CCCCCCCCCCCCCCCCCCCCCCCCCCCCCCCCCCCCCCCCCCCCCCCCCCCCCCCCC
*  2024  5 28  7 26  0.00000000
PL39   3527.060117   4917.095024   4787.982454 999999.999999
VL39  -4405.478606  50133.310307 -48197.352525 999999.999999
*  2024  5 28  7 27  0.00000000
PL39   3496.467220   5210.245059   4491.464789 999999.999999
VL39  -5793.331289  47560.053406 -50616.188098 999999.999999
*  2024  5 28  7 28  0.00000000
PL39   3457.529134   5487.544003   4180.903859 999999.999999
VL39  -7186.684476  44850.979559 -52877.208669 999999.999999
*  2024  5 28  7 29  0.00000000
PL39   3410.222376   5748.201949   3857.268243 999999.999999
VL39  -8582.349930  42014.486104 -54973.267398 999999.999999
*  2024  5 28  7 30  0.00000000
PL39   3354.542862   5991.480534   3521.567880 999999.999999
VL39  -9977.049622  39059.353456 -56897.728648 999999.999999
*  2024  5 28  7 31  0.00000000
PL39   3290.506426   6216.695161   3174.850932 999999.999999
VL39 -11367.424319  35994.717210 -58644.492004 999999.999999
*  2024  5 28  7 32  0.00000000
PL39   3218.149279   6423.217037   2818.200498 999999.999999
VL39 -12750.042619  32830.038683 -60208.013585 999999.999999
*  2024  5 28  7 33  0.00000000
PL39   3137.528413   6610.475037   2452.731227 999999.999999
VL39 -14121.409942  29575.074698 -61583.325425 999999.999999
*  2024  5 28  7 34  0.00000000
PL39   3048.721956   6777.957389   2079.585801 999999.999999
VL39 -15477.977818  26239.846329 -62766.053529 999999.999999
*  2024  5 28  7 35  0.00000000
PL39   2951.829461   6925.213156   1699.931322 999999.999999
VL39 -16816.153837  22834.606053 -63752.433994 999999.999999
*  2024  5 28  7 36  0.00000000
PL39   2846.972144   7051.853526   1314.955611 999999.999999
VL39 -18132.312000  19369.803724 -64539.326479 999999.999999
*  2024  5 28  7 37  0.00000000
PL39   2734.293050   7157.552893    925.863434 999999.999999
VL39 -19422.803301  15856.052052 -65124.225199 999999.999999
*  2024  5 28  7 38  0.00000000
PL39   2613.957161   7242.049727    533.872664 999999.999999
VL39 -20683.966587  12304.091788 -65505.267752 999999.999999
*  2024  5 28  7 39  0.00000000
PL39   2486.151433   7305.147241    140.210402 999999.999999
VL39 -21912.139834   8724.756501 -65681.241885 999999.999999
*  2024  5 28  7 40  0.00000000
PL39   2351.084767   7346.713835   -253.890943 999999.999999
VL39 -23103.671766   5128.936887 -65651.589963 999999.999999
*  2024  5 28  7 41  0.00000000
PL39   2208.987914   7366.683339   -647.197580 999999.999999
VL39 -24254.933685   1527.544856 -65416.410927 999999.999999
*  2024  5 28  7 42  0.00000000
PL39   2060.113295   7365.055027  -1038.478286 999999.999999
VL39 -25362.331378  -2068.522217 -64976.459903 999999.999999
*  2024  5 28  7 43  0.00000000
PL39   1904.734766   7341.893423  -1426.508329 999999.999999
VL39 -26422.317166  -5648.417070 -64333.145644 999999.999999
*  2024  5 28  7 44  0.00000000
PL39   1743.147296   7297.327898  -1810.073380 999999.999999
VL39 -27431.402107  -9201.378001 -63488.525708 999999.999999
*  2024  5 28  7 45  0.00000000
PL39   1575.666584   7231.552047  -2187.973383 999999.999999
VL39 -28386.168317 -12716.764034 -62445.299215 999999.999999
*  2024  5 28  7 46  0.00000000
PL39   1402.628589   7144.822862  -2559.026378 999999.999999
VL39 -29283.281311 -16184.089681 -61206.797128 999999.999999
*  2024  5 28  7 47  0.00000000
PL39   1224.388999   7037.459698  -2922.072258 999999.999999
VL39 -30119.502132 -19593.059087 -59776.969930 999999.999999
*  2024  5 28  7 48  0.00000000
PL39   1041.322619   6909.843029  -3275.976439 999999.999999
VL39 -30891.699033 -22933.599115 -58160.372841 999999.999999
*  2024  5 28  7 49  0.00000000
PL39    853.822694   6762.413024  -3619.633441 999999.999999
VL39 -31596.858817 -26195.891063 -56362.148916 999999.999999
*  2024  5 28  7 50  0.00000000
PL39    662.300165   6595.667921  -3951.970359 999999.999999
VL39 -32232.097907 -29370.400988 -54388.010150 999999.999999
*  2024  5 28  7 51  0.00000000
PL39    467.182857   6410.162239  -4271.950218 999999.999999
VL39 -32794.673069 -32447.908521 -52244.216743 999999.999999
*  2024  5 28  7 52  0.00000000
PL39    268.914611   6206.504807  -4578.575190 999999.999999
VL39 -33281.991791 -35419.534108 -49937.554721 999999.999999
*  2024  5 28  7 53  0.00000000
PL39     67.954344   5985.356646  -4870.889682 999999.999999
VL39 -33691.622289 -38276.764571 -47475.311992 999999.999999
*  2024  5 28  7 54  0.00000000
PL39   -135.224945   5747.428696  -5147.983271 999999.999999
VL39 -34021.303140 -41011.476850 -44865.253167 999999.999999
*  2024  5 28  7 55  0.00000000
PL39   -340.137218   5493.479411  -5408.993490 999999.999999
VL39 -34268.952566 -43615.960160 -42115.593392 999999.999999
*  2024  5 28  7 56  0.00000000
PL39   -546.284513   5224.312218  -5653.108441 999999.999999
VL39 -34432.677323 -46082.936713 -39234.971075 999999.999999
*  2024  5 28  7 57  0.00000000
PL39   -753.158091   4940.772866  -5879.569260 999999.999999
VL39 -34510.781077 -48405.580837 -36232.419491 999999.999999
*  2024  5 28  7 58  0.00000000
PL39   -960.239647   4643.746658  -6087.672391 999999.999999
VL39 -34501.772325 -50577.536289 -33117.337417 999999.999999
*  2024  5 28  7 59  0.00000000
PL39  -1167.002561   4334.155584  -6276.771696 999999.999999
VL39 -34404.371886 -52592.931775 -29899.459027 999999.999999
*  2024  5 28  8  0  0.00000000
PL39  -1372.913191   4012.955375  -6446.280366 999999.999999
VL39 -34217.520005 -54446.394743 -26588.823155 999999.999999
*  2024  5 28  8  1  0.00000000
PL39  -1577.432215   3681.132470  -6595.672667 999999.999999
VL39 -33940.383033 -56133.063481 -23195.742018 999999.999999
*  2024  5 28  8  2  0.00000000
PL39  -1780.015999   3339.700918  -6724.485474 999999.999999
VL39 -33572.359658 -57648.597554 -19730.769498 999999.999999
*  2024  5 28  8  3  0.00000000
PL39  -1980.118015   2989.699225  -6832.319633 999999.999999
VL39 -33113.086621 -58989.186616 -16204.669137 999999.999999
*  2024  5 28  8  4  0.00000000
PL39  -2177.190283   2632.187151  -6918.841120 999999.999999
VL39 -32562.443885 -60151.557626 -12628.381952 999999.999999
*  2024  5 28  8  5  0.00000000
PL39  -2370.684842   2268.242467  -6983.782008 999999.999999
VL39 -31920.559299 -61132.980532  -9012.994177 999999.999999
*  2024  5 28  8  6  0.00000000
PL39  -2560.055254   1898.957683  -7026.941242 999999.999999
VL39 -31187.812774 -61931.272570  -5369.704949 999999.999999
*  2024  5 28  8  7  0.00000000
PL39  -2744.758125   1525.436759  -7048.185220 999999.999999
VL39 -30364.839954 -62544.801209  -1709.793878 999999.999999
*  2024  5 28  8  8  0.00000000
PL39  -2924.254653   1148.791794  -7047.448179 999999.999999
VL39 -29452.535477 -62972.485674   1955.411503 999999.999999
*  2024  5 28  8  9  0.00000000
PL39  -3098.012184    770.139714  -7024.732380 999999.999999
VL39 -28452.055966 -63213.797185   5614.568378 999999.999999
*  2024  5 28  8 10  0.00000000
PL39  -3265.505798    390.598966  -6980.108109 999999.999999
VL39 -27364.822380 -63268.758061   9256.351673 999999.999999
*  2024  5 28  8 11  0.00000000
PL39  -3426.219899     11.286213  -6913.713461 999999.999999
VL39 -26192.521155 -63137.939137  12869.487238 999999.999999
*  2024  5 28  8 12  0.00000000
PL39  -3579.649804   -366.686938  -6825.753946 999999.999999
VL39 -24937.104535 -62822.455305  16442.784286 999999.999999
*  2024  5 28  8 13  0.00000000
PL39  -3725.303342   -742.217192  -6716.501888 999999.999999
VL39 -23600.790875 -62323.960321  19965.166987 999999.999999
*  2024  5 28  8 14  0.00000000
PL39  -3862.702451  -1114.212778  -6586.295641 999999.999999
VL39 -22186.064327 -61644.640758  23425.706266 999999.999999
*  2024  5 28  8 15  0.00000000
PL39  -3991.384769  -1481.596623  -6435.538614 999999.999999
VL39 -20695.673708 -60787.209092  26813.651830 999999.999999
*  2024  5 28  8 16  0.00000000
PL39  -4110.905214  -1843.309489  -6264.698101 999999.999999
VL39 -19132.630374 -59754.895492  30118.464327 999999.999999
*  2024  5 28  8 17  0.00000000
PL39  -4220.837553  -2198.313048  -6074.303919 999999.999999
VL39 -17500.205008 -58551.438189  33329.847549 999999.999999
*  2024  5 28  8 18  0.00000000
PL39  -4320.775945  -2545.592897  -5864.946852 999999.999999
VL39 -15801.923239 -57181.072247  36437.780431 999999.999999
*  2024  5 28  8 19  0.00000000
PL39  -4410.336453  -2884.161504  -5637.276906 999999.999999
VL39 -14041.560139 -55648.516781  39432.548564 999999.999999
*  2024  5 28  8 20  0.00000000
PL39  -4489.158524  -3213.061067  -5392.001376 999999.999999
VL39 -12223.133652 -53958.960575  42304.775167 999999.999999
*  2024  5 28  8 21  0.00000000
PL39  -4556.906422  -3531.366285  -5129.882731 999999.999999
VL39 -10350.897025 -52118.046022  45045.451226 999999.999999
EOF
